{"fetched_at":"2026-07-23T17:55:39.060Z","source":"https://celestrak.org/NORAD/elements/gp.php?NAME=KINEIS&FORMAT=JSON","constellation":"kineis","records":[{"OBJECT_NAME":"KINEIS-2D","OBJECT_ID":"2025-028C","EPOCH":"2026-07-23T02:58:19.320672","CLASSIFICATION_TYPE":"U","MEAN_MOTION":14.75786383,"ECCENTRICITY":0.000479,"INCLINATION":97.9267,"RA_OF_ASC_NODE":255.876,"ARG_OF_PERICENTER":92.2672,"MEAN_ANOMALY":267.9086,"EPHEMERIS_TYPE":0,"NORAD_CAT_ID":62930,"ELEMENT_SET_NO":999,"REV_AT_EPOCH":7801,"BSTAR":0.00020382556,"MEAN_MOTION_DOT":0.00001346,"MEAN_MOTION_DDOT":0},{"OBJECT_NAME":"KINEIS-2E","OBJECT_ID":"2025-028D","EPOCH":"2026-07-23T03:05:33.773568","CLASSIFICATION_TYPE":"U","MEAN_MOTION":14.77102806,"ECCENTRICITY":0.00020517,"INCLINATION":97.8935,"RA_OF_ASC_NODE":254.995,"ARG_OF_PERICENTER":88.0319,"MEAN_ANOMALY":272.1127,"EPHEMERIS_TYPE":0,"NORAD_CAT_ID":62931,"ELEMENT_SET_NO":999,"REV_AT_EPOCH":7808,"BSTAR":0.00016941119,"MEAN_MOTION_DOT":0.00001147,"MEAN_MOTION_DDOT":0},{"OBJECT_NAME":"KINEIS-2A","OBJECT_ID":"2025-028E","EPOCH":"2026-07-23T03:43:22.506240","CLASSIFICATION_TYPE":"U","MEAN_MOTION":14.73465175,"ECCENTRICITY":0.00057214,"INCLINATION":98.1281,"RA_OF_ASC_NODE":259.5983,"ARG_OF_PERICENTER":64.2676,"MEAN_ANOMALY":295.9122,"EPHEMERIS_TYPE":0,"NORAD_CAT_ID":62932,"ELEMENT_SET_NO":999,"REV_AT_EPOCH":7790,"BSTAR":0.00017861289,"MEAN_MOTION_DOT":0.00001108,"MEAN_MOTION_DDOT":0},{"OBJECT_NAME":"KINEIS-2B","OBJECT_ID":"2025-028G","EPOCH":"2026-07-23T03:10:49.346976","CLASSIFICATION_TYPE":"U","MEAN_MOTION":14.73465133,"ECCENTRICITY":0.00044699,"INCLINATION":97.9649,"RA_OF_ASC_NODE":256.34,"ARG_OF_PERICENTER":55.2848,"MEAN_ANOMALY":304.878,"EPHEMERIS_TYPE":0,"NORAD_CAT_ID":62934,"ELEMENT_SET_NO":999,"REV_AT_EPOCH":7795,"BSTAR":0.00016757699,"MEAN_MOTION_DOT":0.00001038,"MEAN_MOTION_DDOT":0},{"OBJECT_NAME":"KINEIS-4E","OBJECT_ID":"2025-056A","EPOCH":"2026-07-23T08:05:15.338112","CLASSIFICATION_TYPE":"U","MEAN_MOTION":14.72320995,"ECCENTRICITY":0.0002754,"INCLINATION":97.9075,"RA_OF_ASC_NODE":327.2367,"ARG_OF_PERICENTER":72.0438,"MEAN_ANOMALY":288.107,"EPHEMERIS_TYPE":0,"NORAD_CAT_ID":63300,"ELEMENT_SET_NO":999,"REV_AT_EPOCH":7244,"BSTAR":0.00023924504,"MEAN_MOTION_DOT":0.00001464,"MEAN_MOTION_DDOT":0},{"OBJECT_NAME":"KINEIS-4C","OBJECT_ID":"2025-056B","EPOCH":"2026-07-22T14:26:25.360224","CLASSIFICATION_TYPE":"U","MEAN_MOTION":14.7234037,"ECCENTRICITY":0.00033611,"INCLINATION":97.9128,"RA_OF_ASC_NODE":326.7756,"ARG_OF_PERICENTER":186.3805,"MEAN_ANOMALY":173.736,"EPHEMERIS_TYPE":0,"NORAD_CAT_ID":63301,"ELEMENT_SET_NO":999,"REV_AT_EPOCH":7234,"BSTAR":0.00021109515,"MEAN_MOTION_DOT":0.00001287,"MEAN_MOTION_DDOT":0},{"OBJECT_NAME":"KINEIS-4D","OBJECT_ID":"2025-056C","EPOCH":"2026-07-23T06:50:10.336704","CLASSIFICATION_TYPE":"U","MEAN_MOTION":14.72221582,"ECCENTRICITY":0.00021296,"INCLINATION":97.9049,"RA_OF_ASC_NODE":327.4049,"ARG_OF_PERICENTER":185.8581,"MEAN_ANOMALY":174.2602,"EPHEMERIS_TYPE":0,"NORAD_CAT_ID":63302,"ELEMENT_SET_NO":999,"REV_AT_EPOCH":7244,"BSTAR":0.00024657613,"MEAN_MOTION_DOT":0.00001507,"MEAN_MOTION_DDOT":0},{"OBJECT_NAME":"KINEIS-4A","OBJECT_ID":"2025-056D","EPOCH":"2026-07-23T07:40:45.867648","CLASSIFICATION_TYPE":"U","MEAN_MOTION":14.72302014,"ECCENTRICITY":0.00025667,"INCLINATION":97.9143,"RA_OF_ASC_NODE":327.4003,"ARG_OF_PERICENTER":137.9838,"MEAN_ANOMALY":222.1567,"EPHEMERIS_TYPE":0,"NORAD_CAT_ID":63303,"ELEMENT_SET_NO":999,"REV_AT_EPOCH":7244,"BSTAR":0.00024190902,"MEAN_MOTION_DOT":0.00001481,"MEAN_MOTION_DDOT":0},{"OBJECT_NAME":"KINEIS-4B","OBJECT_ID":"2025-056E","EPOCH":"2026-07-23T07:15:47.296800","CLASSIFICATION_TYPE":"U","MEAN_MOTION":14.72287768,"ECCENTRICITY":0.00059461,"INCLINATION":97.9156,"RA_OF_ASC_NODE":327.4421,"ARG_OF_PERICENTER":167.9778,"MEAN_ANOMALY":192.1573,"EPHEMERIS_TYPE":0,"NORAD_CAT_ID":63304,"ELEMENT_SET_NO":999,"REV_AT_EPOCH":7243,"BSTAR":0.000082741514,"MEAN_MOTION_DOT":0.00000474,"MEAN_MOTION_DDOT":0}]}
