KINEIS-2D               
1 62930U 25028C   26204.12383473  .00001346  00000+0  20383-3 0  9994
2 62930  97.9267 255.8760 0004790  92.2672 267.9086 14.75786383 78019
KINEIS-2E               
1 62931U 25028D   26204.12886312  .00001147  00000+0  16941-3 0  9999
2 62931  97.8935 254.9950 0002051  88.0319 272.1127 14.77102806 78086
KINEIS-2A               
1 62932U 25028E   26204.15512160  .00001108  00000+0  17861-3 0  9999
2 62932  98.1281 259.5983 0005721  64.2676 295.9122 14.73465175 77906
KINEIS-2B               
1 62934U 25028G   26204.13251559  .00001038  00000+0  16758-3 0  9997
2 62934  97.9649 256.3400 0004469  55.2848 304.8780 14.73465133 77950
KINEIS-4E               
1 63300U 25056A   26204.33698308  .00001464  00000+0  23925-3 0  9992
2 63300  97.9075 327.2367 0002754  72.0438 288.1070 14.72320995 72448
KINEIS-4C               
1 63301U 25056B   26203.60168241  .00001287  00000+0  21110-3 0  9997
2 63301  97.9128 326.7756 0003361 186.3805 173.7360 14.72340370 72345
KINEIS-4D               
1 63302U 25056C   26204.28484186  .00001507  00000+0  24658-3 0  9997
2 63302  97.9049 327.4049 0002129 185.8581 174.2602 14.72221582 72446
KINEIS-4A               
1 63303U 25056D   26204.31997532  .00001481  00000+0  24191-3 0  9999
2 63303  97.9143 327.4003 0002566 137.9838 222.1567 14.72302014 72443
KINEIS-4B               
1 63304U 25056E   26204.30263075  .00000474  00000+0  82742-4 0  9995
2 63304  97.9156 327.4421 0005946 167.9778 192.1573 14.72287768 72433
